IRIDIUM 144             
1 43249U 18030A   23253.77313930  .00000185  00000+0  59024-4 0  9999
2 43249  86.4033 352.7032 0002033  89.4180 270.7249 14.34213051285334
IRIDIUM 149             
1 43250U 18030B   23254.33763324  .00000373  00000+0  12596-3 0  9991
2 43250  86.4029 352.4457 0002008  88.6309 271.5117 14.34219216285416
IRIDIUM 157             
1 43251U 18030C   23254.07758958  .00000353  00000+0  11890-3 0  9994
2 43251  86.4030 352.5850 0002212  98.4885 261.6561 14.34217940285350
IRIDIUM 140             
1 43252U 18030D   23253.95706771  .00000371  00000+0  12557-3 0  9998
2 43252  86.4029 352.6495 0002192  87.8968 272.2479 14.34218254285395
IRIDIUM 145             
1 43253U 18030E   23253.80485832  .00000365  00000+0  12311-3 0  9996
2 43253  86.4030 352.6882 0001831  85.2836 274.8569 14.34215872285305
IRIDIUM 146             
1 43254U 18030F   23254.34397445  .00000137  00000+0  41907-4 0  9990
2 43254  86.4030 352.4789 0001895  93.2180 266.9232 14.34217659285394
IRIDIUM 148             
1 43255U 18030G   23253.82388817  .00000376  00000+0  12703-3 0  9992
2 43255  86.4030 352.7239 0001846  96.5525 263.5881 14.34220112285361
IRIDIUM 142             
1 43256U 18030H   23253.58286494  .00000376  00000+0  12731-3 0  9995
2 43256  86.4025 352.7501 0002040  95.8363 264.3066 14.34218789285289
